JILIN-1 KUANFU 01       
1 45016U 20003A   26194.24857480  .00001493  00000+0  93485-4 0  9990
2 45016  97.5021 267.6961 0009087 204.0732 156.0075 15.10860868359263
JILIN-1 KUANFU-01B      
1 49003U 21061A   26194.28594618  .00002011  00000+0  12834-3 0  9995
2 49003  97.5206 269.9946 0006230 343.5160  16.5866 15.09803150277285
JILIN-1 KUANFU 01C      
1 52443U 22048A   26194.27755858  .00001595  00000+0  10295-3 0  9992
2 52443  97.5251 270.9758 0017190 227.1260 132.8526 15.09594251231133
JILIN-1 KUANFU 02A      
1 57696U 23127A   26194.29839533  .00002064  00000+0  12803-3 0  9990
2 57696  97.5571 287.7870 0010161 244.0496 115.9687 15.10802778159579
JILIN-01 KUANFU 02B 1   
1 61189U 24169A   26194.30993404  .00001900  00000+0  12399-3 0  9997
2 61189  97.5582 283.4309 0001626 353.8474   6.2735 15.09051830 99767
JILIN-01 KUANFU 02B 2   
1 61190U 24169B   26194.28950350  .00001443  00000+0  95253-4 0  9992
2 61190  97.5571 282.7958 0004797 287.8658  72.2047 15.09011369 99763
JILIN-01 KUANFU 02B 3   
1 61191U 24169C   26194.29849519  .00001564  00000+0  10267-3 0  9993
2 61191  97.5569 283.2376 0012875 212.1279 147.9166 15.09050945 99762
JILIN-01 KUANFU 02B 4   
1 61192U 24169D   26194.26725545  .00002635  00000+0  17018-3 0  9994
2 61192  97.5532 282.7340 0013837 170.3622 189.7875 15.09033698 99761
JILIN-01 KUANFU 02B 5   
1 61193U 24169E   26194.25432955  .00002333  00000+0  15109-3 0  9998
2 61193  97.5583 283.5169 0013039 193.9498 166.1372 15.09068884 99768
JILIN-01 KUANFU 02B 6   
1 61194U 24169F   26194.27790705  .00001920  00000+0  12507-3 0  9991
2 61194  97.5559 283.4334 0015451 228.4027 131.5878 15.09026165 99771
