{"fetched_at":"2026-07-13T18:17:02.296Z","source":"https://celestrak.org/NORAD/elements/gp.php?NAME=JILIN&FORMAT=JSON","constellation":"jilin-1-kuanfu","records":[{"OBJECT_NAME":"JILIN-1 KUANFU 01","OBJECT_ID":"2020-003A","EPOCH":"2026-07-13T05:57:56.862720","CLASSIFICATION_TYPE":"U","MEAN_MOTION":15.10860868,"ECCENTRICITY":0.00090871,"INCLINATION":97.5021,"RA_OF_ASC_NODE":267.6961,"ARG_OF_PERICENTER":204.0732,"MEAN_ANOMALY":156.0075,"EPHEMERIS_TYPE":0,"NORAD_CAT_ID":45016,"ELEMENT_SET_NO":999,"REV_AT_EPOCH":35926,"BSTAR":0.000093484959,"MEAN_MOTION_DOT":0.00001493,"MEAN_MOTION_DDOT":0},{"OBJECT_NAME":"JILIN-1 KUANFU-01B","OBJECT_ID":"2021-061A","EPOCH":"2026-07-13T06:51:45.749952","CLASSIFICATION_TYPE":"U","MEAN_MOTION":15.0980315,"ECCENTRICITY":0.00062305,"INCLINATION":97.5206,"RA_OF_ASC_NODE":269.9946,"ARG_OF_PERICENTER":343.516,"MEAN_ANOMALY":16.5866,"EPHEMERIS_TYPE":0,"NORAD_CAT_ID":49003,"ELEMENT_SET_NO":999,"REV_AT_EPOCH":27728,"BSTAR":0.0001283431,"MEAN_MOTION_DOT":0.00002011,"MEAN_MOTION_DDOT":0},{"OBJECT_NAME":"JILIN-1 KUANFU 01C","OBJECT_ID":"2022-048A","EPOCH":"2026-07-13T06:39:41.061312","CLASSIFICATION_TYPE":"U","MEAN_MOTION":15.09594251,"ECCENTRICITY":0.00171908,"INCLINATION":97.5251,"RA_OF_ASC_NODE":270.9758,"ARG_OF_PERICENTER":227.126,"MEAN_ANOMALY":132.8526,"EPHEMERIS_TYPE":0,"NORAD_CAT_ID":52443,"ELEMENT_SET_NO":999,"REV_AT_EPOCH":23113,"BSTAR":0.00010294521,"MEAN_MOTION_DOT":0.00001595,"MEAN_MOTION_DDOT":0},{"OBJECT_NAME":"JILIN-1 KUANFU 02A","OBJECT_ID":"2023-127A","EPOCH":"2026-07-13T07:09:41.356512","CLASSIFICATION_TYPE":"U","MEAN_MOTION":15.10802778,"ECCENTRICITY":0.0010161,"INCLINATION":97.5571,"RA_OF_ASC_NODE":287.787,"ARG_OF_PERICENTER":244.0496,"MEAN_ANOMALY":115.9687,"EPHEMERIS_TYPE":0,"NORAD_CAT_ID":57696,"ELEMENT_SET_NO":999,"REV_AT_EPOCH":15957,"BSTAR":0.00012802989,"MEAN_MOTION_DOT":0.00002064,"MEAN_MOTION_DDOT":0},{"OBJECT_NAME":"JILIN-01 KUANFU 02B 1","OBJECT_ID":"2024-169A","EPOCH":"2026-07-13T07:26:18.301056","CLASSIFICATION_TYPE":"U","MEAN_MOTION":15.0905183,"ECCENTRICITY":0.00016263,"INCLINATION":97.5582,"RA_OF_ASC_NODE":283.4309,"ARG_OF_PERICENTER":353.8474,"MEAN_ANOMALY":6.2735,"EPHEMERIS_TYPE":0,"NORAD_CAT_ID":61189,"ELEMENT_SET_NO":999,"REV_AT_EPOCH":9976,"BSTAR":0.00012398945,"MEAN_MOTION_DOT":0.000019,"MEAN_MOTION_DDOT":0},{"OBJECT_NAME":"JILIN-01 KUANFU 02B 2","OBJECT_ID":"2024-169B","EPOCH":"2026-07-13T06:56:53.102400","CLASSIFICATION_TYPE":"U","MEAN_MOTION":15.09011369,"ECCENTRICITY":0.00047972,"INCLINATION":97.5571,"RA_OF_ASC_NODE":282.7958,"ARG_OF_PERICENTER":287.8658,"MEAN_ANOMALY":72.2047,"EPHEMERIS_TYPE":0,"NORAD_CAT_ID":61190,"ELEMENT_SET_NO":999,"REV_AT_EPOCH":9976,"BSTAR":0.000095253086,"MEAN_MOTION_DOT":0.00001443,"MEAN_MOTION_DDOT":0},{"OBJECT_NAME":"JILIN-01 KUANFU 02B 3","OBJECT_ID":"2024-169C","EPOCH":"2026-07-13T07:09:49.984416","CLASSIFICATION_TYPE":"U","MEAN_MOTION":15.09050945,"ECCENTRICITY":0.00128756,"INCLINATION":97.5569,"RA_OF_ASC_NODE":283.2376,"ARG_OF_PERICENTER":212.1279,"MEAN_ANOMALY":147.9166,"EPHEMERIS_TYPE":0,"NORAD_CAT_ID":61191,"ELEMENT_SET_NO":999,"REV_AT_EPOCH":9976,"BSTAR":0.00010266663,"MEAN_MOTION_DOT":0.00001564,"MEAN_MOTION_DDOT":0},{"OBJECT_NAME":"JILIN-01 KUANFU 02B 4","OBJECT_ID":"2024-169D","EPOCH":"2026-07-13T06:24:50.870880","CLASSIFICATION_TYPE":"U","MEAN_MOTION":15.09033698,"ECCENTRICITY":0.00138371,"INCLINATION":97.5532,"RA_OF_ASC_NODE":282.734,"ARG_OF_PERICENTER":170.3622,"MEAN_ANOMALY":189.7875,"EPHEMERIS_TYPE":0,"NORAD_CAT_ID":61192,"ELEMENT_SET_NO":999,"REV_AT_EPOCH":9976,"BSTAR":0.00017017787,"MEAN_MOTION_DOT":0.00002635,"MEAN_MOTION_DDOT":0},{"OBJECT_NAME":"JILIN-01 KUANFU 02B 5","OBJECT_ID":"2024-169E","EPOCH":"2026-07-13T06:06:14.073120","CLASSIFICATION_TYPE":"U","MEAN_MOTION":15.09068884,"ECCENTRICITY":0.00130394,"INCLINATION":97.5583,"RA_OF_ASC_NODE":283.5169,"ARG_OF_PERICENTER":193.9498,"MEAN_ANOMALY":166.1372,"EPHEMERIS_TYPE":0,"NORAD_CAT_ID":61193,"ELEMENT_SET_NO":999,"REV_AT_EPOCH":9976,"BSTAR":0.0001510852,"MEAN_MOTION_DOT":0.00002333,"MEAN_MOTION_DDOT":0},{"OBJECT_NAME":"JILIN-01 KUANFU 02B 6","OBJECT_ID":"2024-169F","EPOCH":"2026-07-13T06:40:11.169120","CLASSIFICATION_TYPE":"U","MEAN_MOTION":15.09026165,"ECCENTRICITY":0.00154517,"INCLINATION":97.5559,"RA_OF_ASC_NODE":283.4334,"ARG_OF_PERICENTER":228.4027,"MEAN_ANOMALY":131.5878,"EPHEMERIS_TYPE":0,"NORAD_CAT_ID":61194,"ELEMENT_SET_NO":999,"REV_AT_EPOCH":9977,"BSTAR":0.00012507303,"MEAN_MOTION_DOT":0.0000192,"MEAN_MOTION_DDOT":0}]}
